STARLINK-5160           
1 54080U 22136AF  22309.91668981  .00073531  00000+0  52484-3 0  9999
2 54080  53.2155  67.1927 0002044  32.7512  65.2788 15.73150322  1301
STARLINK-5165           
1 54081U 22136AG  22309.91668981 -.00011294  00000+0 -76147-4 0  9993
2 54081  53.2152  67.1851 0002045  26.2791  74.7924 15.73198854  1302
STARLINK-5210           
1 54082U 22136AH  22310.16667824  .00068189  00000+0  48674-3 0  9994
2 54082  53.2159  65.9495 0001995  27.9493  49.1025 15.73179277  3117
STARLINK-5178           
1 54083U 22136AJ  22309.91668981  .00070086  00000+0  50054-3 0  9995
2 54083  53.2154  67.1819 0002132  26.8883  76.4774 15.73156093  1306
STARLINK-5183           
1 54084U 22136AK  22309.91668981 -.00012633  00000+0 -85626-4 0  9996
2 54084  53.2154  67.1851 0002440  27.1610  74.4703 15.73220283  1300
STARLINK-5166           
1 54085U 22136AL  22310.25001157  .00025503  00000+0  18559-3 0  9990
2 54085  53.2156  65.5291 0001813  28.6018 164.2373 15.73198092  3118
STARLINK-5211           
1 54086U 22136AM  22310.25001157  .00113595  00000+0  80334-3 0  9990
2 54086  53.2158  65.5332 0002422  20.0613 170.9603 15.73185225  3115
STARLINK-5184           
1 54087U 22136AN  22309.91668981  .00069348  00000+0  49592-3 0  9993
2 54087  53.2156  67.1798 0002572  15.0019  89.6041 15.73128297  1305
STARLINK-5153           
1 54088U 22136AP  22309.91668981 -.00006741  00000+0 -43619-4 0  9999
2 54088  53.2156  67.1828 0002275  26.0258  76.8007 15.73206810  1305
STARLINK-5143           
1 54089U 22136AQ  22309.91668981  .00066080  00000+0  47262-3 0  9997
2 54089  53.2152  67.1767 0002019  31.2823  75.1041 15.73145422  1307
STARLINK-5177           
1 54090U 22136AR  22309.91668981 -.00020637  00000+0 -14306-3 0  9992
2 54090  53.2154  67.1760 0002193  24.0814  81.8025 15.73183137  1308
STARLINK-5221           
1 54091U 22136AS  22309.91668981  .00061153  00000+0  43798-3 0  9996
2 54091  53.2161  67.1739 0002004  21.8355  86.4474 15.73144737  1301
STARLINK-5190           
1 54092U 22136AT  22310.16667824  .00106264  00000+0  75398-3 0  9995
2 54092  53.2164  65.9407 0001898  29.0451  52.8543 15.73138157  3103
STARLINK-5213           
1 54093U 22136AU  22309.91668981  .00054504  00000+0  39062-3 0  9999
2 54093  53.2155  67.1710 0002199  36.6932  72.0878 15.73176123  1308
STARLINK-5219           
1 54094U 22136AV  22309.91668981  .00069736  00000+0  49844-3 0  9992
2 54094  53.2162  67.1765 0002131  33.1017  73.8733 15.73139237  1303
STARLINK-5193           
1 54095U 22136AW  22309.91668981  .00067906  00000+0  48542-3 0  9994
2 54095  53.2158  67.1697 0002099  30.7241  79.2297 15.73146898  1304
STARLINK-5188           
1 54096U 22136AX  22309.91668981 -.00025580  00000+0 -17836-3 0  9991
2 54096  53.2157  67.1734 0002099  24.2543  83.3792 15.73201321  1308
STARLINK-5197           
1 54097U 22136AY  22310.25001157  .00047175  00000+0  33852-3 0  9995
2 54097  53.2156  65.4746 0001847  32.7035 185.8074 15.73208814  3118
STARLINK-5217           
1 54098U 22136AZ  22309.91668981 -.00024354  00000+0 -16953-3 0  9990
2 54098  53.2161  67.1694 0002127  29.9852  80.6236 15.73206806  1303
STARLINK-5198           
1 54099U 22136BA  22309.91668981  .00047273  00000+0  34140-3 0  9992
2 54099  53.2160  67.1638 0002184  20.9254  91.7144 15.73056855  1309
STARLINK-5185           
1 54100U 22136BB  22309.91668981 -.00022779  00000+0 -15826-3 0  9991
2 54100  53.2158  67.1703 0002143  29.5716  79.8145 15.73205330  1307
STARLINK-5204           
1 54101U 22136BC  22309.91668981  .00032640  00000+0  23630-3 0  9990
2 54101  53.2164  67.1647 0002360  16.4756  96.4812 15.73176006  1305
STARLINK-5179           
1 54102U 22136BD  22309.91668981  .00067567  00000+0  48354-3 0  9997
2 54102  53.2155  67.1644 0002038  24.0511  87.7298 15.73122893  1305
STARLINK-5200           
1 54103U 22136BE  22309.91668981 -.00031189  00000+0 -21859-3 0  9992
2 54103  53.2152  67.1597 0001973  24.7313  88.8683 15.73201209  1303
STARLINK-5203           
1 54104U 22136BF  22309.91668981  .00000870  00000+0  10622-4 0  9991
2 54104  53.2160  67.1606 0002079  22.5242  91.6531 15.73198729  1305
FALCON 9 DEB            
1 54105U 22136BG  22308.52700968  .11291995  12447-4  38267-3 0  9999
2 54105  53.2122  71.3872 0011182  89.7706 270.4626 16.43608760  2415
FALCON 9 DEB            
1 54106U 22136BH  22308.76799852  .16128727  12436-4  19200-3 0  9997
2 54106  53.1990  70.0414 0017451 119.6132 242.7944 16.48430643  2443
FALCON 9 DEB            
1 54107U 22136BJ  22308.57115258  .13103024  12610-4  17289-3 0  9998
2 54107  53.2220  70.9258 0004035  82.1516 277.9994 16.49155760  2428
COSMOS 2561             
1 54109U 22137A   22309.82973817  .00019442  00000+0  33257-3 0  9997
2 54109  97.0768  29.6566 0008284 205.3485 154.7363 15.51262523  2329
COSMOS 2562             
1 54110U 22137B   22309.88349152  .00022245  00000+0  35477-3 0  9995
2 54110  97.0766  29.7347 0012195 226.0802 133.9446 15.53152194  2332
ONEWEB-0490             
1 54113U 22138A   22310.25001157 -.00001582  00000+0 -16443-3 0  9997
2 54113  87.4304 212.2275 0011565 233.9303 116.4499 14.90635677  3021
ONEWEB-0492             
1 54114U 22138B   22310.25001157 -.00058253  00000+0 -60484-2 0  9998
2 54114  87.4311 212.2305 0012895 236.6964  95.5357 14.90308988  3026
ONEWEB-0495             
1 54115U 22138C   22310.25001157  .00016551  00000+0  17374-2 0  9992
2 54115  87.4321 212.2411 0012951 255.6934  25.9489 14.89351576  3029
ONEWEB-0497             
1 54116U 22138D   22310.25001157 -.00001049  00000+0 -11148-3 0  9995
2 54116  87.4329 212.2355 0013397 242.0755  77.8728 14.90047456  3024
ONEWEB-0499             
1 54117U 22138E   22310.25001157 -.00001302  00000+0 -13682-3 0  9993
2 54117  87.4324 212.2311 0012749 236.6000  98.0925 14.90336159  3029
ONEWEB-0500             
1 54118U 22138F   22310.25001157 -.00002323  00000+0 -23723-3 0  9995
2 54118  87.4312 212.2217 0009382 234.7696 141.7215 14.91141122  3024
ONEWEB-0501             
1 54119U 22138G   22310.25001157 -.00001216  00000+0 -12954-3 0  9990
2 54119  87.4290 212.2300 0013807 246.2112  61.7682 14.89816813  3023
ONEWEB-0502             
1 54120U 22138H   22310.25001157 -.00002423  00000+0 -24896-3 0  9991
2 54120  87.4313 212.2244 0010439 232.0247 130.4131 14.90867237  3029
ONEWEB-0503             
1 54121U 22138J   22310.25001157 -.00001252  00000+0 -13151-3 0  9993
2 54121  87.4300 212.2292 0012623 236.3215 100.0868 14.90368139  3025
ONEWEB-0504             
1 54122U 22138K   22309.91668981 -.00040784  00000+0 -41507-2 0  9997
2 54122  87.4319 212.3369 0009296 232.8607 150.7565 14.91052654  1308
ONEWEB-0505             
1 54123U 22138L   22310.25001157 -.00000931  00000+0 -10084-3 0  9990
2 54123  87.4294 212.2315 0013216 251.5332  36.7784 14.89439721  3029
ONEWEB-0506             
1 54124U 22138M   22310.25001157 -.00000961  00000+0 -10369-3 0  9990
2 54124  87.4312 212.2364 0014734 253.5371  40.5624 14.89548306  3022
ONEWEB-0507             
1 54125U 22138N   22310.25001157 -.00003346  00000+0 -33843-3 0  9993
2 54125  87.4313 212.2212 0008370 237.0802 153.1384 14.91401960  3022
ONEWEB-0508             
1 54126U 22138P   22310.25001157 -.00002095  00000+0 -21670-3 0  9999
2 54126  87.4316 212.2281 0011417 233.4745 118.4331 14.90661890  3029
ONEWEB-0509             
1 54127U 22138Q   22310.25001157 -.00001781  00000+0 -18804-3 0  9996
2 54127  87.4334 212.2376 0013644 244.6812  67.6411 14.89899210  3029
ONEWEB-0510             
1 54128U 22138R   22310.25001157 -.00004325  00000+0 -43256-3 0  9993
2 54128  87.3966 212.2140 0008259 251.4431 158.4264 14.91783173  3026
ONEWEB-0511             
1 54129U 22138S   22310.25001157 -.00002336  00000+0 -23992-3 0  9999
2 54129  87.4319 212.2285 0010299 232.3214 132.3184 14.90910661  3029
ONEWEB-0512             
1 54130U 22138T   22310.16667824  .00058468  00000+0  60224-2 0  9993
2 54130  87.4285 212.2549 0013273 244.3892 343.8909 14.89919193  3016
ONEWEB-0513             
1 54131U 22138U   22310.25001157 -.01005643  00000+0 -18561+0 0  9999
2 54131  87.4635 212.3041 0008550 244.2963  50.9215 14.68490324  3017
ONEWEB-0514             
1 54132U 22138V   22310.25001157 -.00002541  00000+0 -26024-3 0  9990
2 54132  87.4312 212.2224 0009943 233.2831 135.5478 14.90989928  3021
ONEWEB-0515             
1 54133U 22138W   22310.25001157 -.00003670  00000+0 -36957-3 0  9991
2 54133  87.3934 212.2110 0008547 241.3680 157.1586 14.91548221  3024
ONEWEB-0516             
1 54134U 22138X   22310.25001157 -.00002554  00000+0 -26258-3 0  9995
2 54134  87.4316 212.2271 0010590 231.6692 128.4522 14.90820392  3026
ONEWEB-0517             
1 54135U 22138Y   22310.25001157 -.00001418  00000+0 -14813-3 0  9998
2 54135  87.4297 212.2278 0012055 235.0537 108.8094 14.90509319  3025
ONEWEB-0518             
1 54136U 22138Z   22310.25001157 -.00001313  00000+0 -13858-3 0  9991
2 54136  87.4313 212.2319 0012786 240.5933  83.6396 14.90128775  3021
ONEWEB-0519             
1 54137U 22138AA  22310.25001157 -.00002234  00000+0 -22808-3 0  9990
2 54137  87.4318 212.2260 0009244 235.2462 142.9745 14.91173781  3020
ONEWEB-0520             
1 54138U 22138AB  22310.25001157 -.00001454  00000+0 -15146-3 0  9991
2 54138  87.4327 212.2293 0011857 234.6047 113.6297 14.90594922  3022
ONEWEB-0521             
1 54139U 22138AC  22309.91668981 -.00044923  00000+0 -47861-2 0  9993
2 54139  87.4302 212.3447 0013018 259.6785  30.0756 14.89198812  1302
ONEWEB-0522             
1 54140U 22138AD  22310.25001157  .00081916  00000+0  84411-2 0  9993
2 54140  87.4324 212.2367 0013869 246.3951  59.5558 14.89767307  3028
ONEWEB-0523             
1 54141U 22138AE  22310.25001157 -.00004266  00000+0 -42719-3 0  9995
2 54141  87.3980 212.2180 0008127 250.1826 157.2949 14.91735123  3028
